ONEWEB-0381             
1 49307U 21090AE  26019.29623089 -.00000353  00000+0 -89986-3 0  9997
2 49307  87.9232 304.1435 0001971  75.6953 284.4399 13.20776070210172
ONEWEB-0382             
1 49308U 21090AF  26019.28359678  .00000122  00000+0  26691-3 0  9993
2 49308  87.9234 304.1424 0002015  72.3961 287.7392 13.20772196210169
ONEWEB-0383             
1 49309U 21090AG  26019.29736504  .00000077  00000+0  17392-3 0  9999
2 49309  87.9033 319.3650 0001828  71.8582 288.2747 13.14503269208039
ONEWEB-0384             
1 49310U 21090AH  26019.27618497  .00000136  00000+0  30186-3 0  9991
2 49310  87.9246 304.1830 0002170  66.9364 293.1998 13.20802863210173
ONEWEB-0385             
1 49311U 21090AJ  26019.27570494  .00000119  00000+0  26146-3 0  9998
2 49311  87.9233 304.1480 0001853  75.9354 284.1985 13.20769997210140
ONEWEB-0386             
1 49312U 21090AK  26019.29306234  .00000146  00000+0  32731-3 0  9997
2 49312  87.9232 304.1292 0001912  71.0302 289.1038 13.20773800210161
ONEWEB-0387             
1 49313U 21090AL  26019.27728795  .00000149  00000+0  33404-3 0  9997
2 49313  87.9225 304.1749 0001941  82.9619 277.1735 13.20772763210163
ONEWEB-0388             
1 49314U 21090AM  26019.27621160  .00000043  00000+0  73971-4 0  9993
2 49314  87.9232 334.6067 0001886  77.3859 282.7484 13.19727055206772
ONEWEB-0389             
1 50469U 21132A   26019.28789538  .00000041  00000+0  72404-4 0  9996
2 50469  87.9086  35.4631 0002206  91.9140 268.2244 13.17648962198474
ONEWEB-0390             
1 50470U 21132B   26019.28958076  .00000099  00000+0  22066-3 0  9994
2 50470  87.9083  35.4634 0001809 100.4998 259.6338 13.17648498198473
ONEWEB-0391             
1 50471U 21132C   26019.29126408  .00000045  00000+0  82038-4 0  9999
2 50471  87.9084  35.4726 0002628 101.3368 258.8059 13.17650771198476
ONEWEB-0392             
1 50472U 21132D   26019.32165028  .00000061  00000+0  12331-3 0  9991
2 50472  87.9092  35.4222 0002194  93.8402 266.2981 13.17649502198511
ONEWEB-0393             
1 50473U 21132E   26019.06697253  .00000027  00000+0  36702-4 0  9994
2 50473  87.9096  35.4958 0001972  92.7322 267.4036 13.17648130198479
ONEWEB-0394             
1 50474U 21132F   26019.22815334  .00000057  00000+0  11093-3 0  9993
2 50474  87.9190   5.0126 0001948  84.1524 275.9830 13.18685068201964
ONEWEB-0395             
1 50475U 21132G   26019.31204096  .00000392  00000+0  10713-2 0  9990
2 50475  87.8817  50.7091 0001893 103.1534 256.9805 13.11416819196200
ONEWEB-0396             
1 50476U 21132H   26019.22156256 -.00000049  00000+0 -15728-3 0  9998
2 50476  87.9191   5.0259 0001912  85.0795 275.0556 13.18685304202000
ONEWEB-0397             
1 50477U 21132J   26019.31227263  .00000000  00000+0 -32189-4 0  9993
2 50477  87.9191   5.0079 0001933  81.2177 278.9174 13.18685636201999
