[{"OBJECT_NAME":"ONEWEB-0381","OBJECT_ID":"2021-090AE","EPOCH":"2026-01-19T07:06:34.348896","MEAN_MOTION":13.2077607,"ECCENTRICITY":0.00019712,"INCLINATION":87.9232,"RA_OF_ASC_NODE":304.1435,"ARG_OF_PERICENTER":75.6953,"MEAN_ANOMALY":284.4399,"EPHEMERIS_TYPE":0,"CLASSIFICATION_TYPE":"U","NORAD_CAT_ID":49307,"ELEMENT_SET_NO":999,"REV_AT_EPOCH":21017,"BSTAR":-0.00089985627,"MEAN_MOTION_DOT":-3.53e-6,"MEAN_MOTION_DDOT":0},{"OBJECT_NAME":"ONEWEB-0382","OBJECT_ID":"2021-090AF","EPOCH":"2026-01-19T06:48:22.761792","MEAN_MOTION":13.20772196,"ECCENTRICITY":0.00020155,"INCLINATION":87.9234,"RA_OF_ASC_NODE":304.1424,"ARG_OF_PERICENTER":72.3961,"MEAN_ANOMALY":287.7392,"EPHEMERIS_TYPE":0,"CLASSIFICATION_TYPE":"U","NORAD_CAT_ID":49308,"ELEMENT_SET_NO":999,"REV_AT_EPOCH":21016,"BSTAR":0.00026691464,"MEAN_MOTION_DOT":1.22e-6,"MEAN_MOTION_DDOT":0},{"OBJECT_NAME":"ONEWEB-0383","OBJECT_ID":"2021-090AG","EPOCH":"2026-01-19T07:08:12.339456","MEAN_MOTION":13.14503269,"ECCENTRICITY":0.00018281,"INCLINATION":87.9033,"RA_OF_ASC_NODE":319.365,"ARG_OF_PERICENTER":71.8582,"MEAN_ANOMALY":288.2747,"EPHEMERIS_TYPE":0,"CLASSIFICATION_TYPE":"U","NORAD_CAT_ID":49309,"ELEMENT_SET_NO":999,"REV_AT_EPOCH":20803,"BSTAR":0.00017392009,"MEAN_MOTION_DOT":7.7e-7,"MEAN_MOTION_DDOT":0},{"OBJECT_NAME":"ONEWEB-0384","OBJECT_ID":"2021-090AH","EPOCH":"2026-01-19T06:37:42.381408","MEAN_MOTION":13.20802863,"ECCENTRICITY":0.00021709,"INCLINATION":87.9246,"RA_OF_ASC_NODE":304.183,"ARG_OF_PERICENTER":66.9364,"MEAN_ANOMALY":293.1998,"EPHEMERIS_TYPE":0,"CLASSIFICATION_TYPE":"U","NORAD_CAT_ID":49310,"ELEMENT_SET_NO":999,"REV_AT_EPOCH":21017,"BSTAR":0.0003018646,"MEAN_MOTION_DOT":1.36e-6,"MEAN_MOTION_DDOT":0},{"OBJECT_NAME":"ONEWEB-0385","OBJECT_ID":"2021-090AJ","EPOCH":"2026-01-19T06:37:00.906816","MEAN_MOTION":13.20769997,"ECCENTRICITY":0.0001853,"INCLINATION":87.9233,"RA_OF_ASC_NODE":304.148,"ARG_OF_PERICENTER":75.9354,"MEAN_ANOMALY":284.1985,"EPHEMERIS_TYPE":0,"CLASSIFICATION_TYPE":"U","NORAD_CAT_ID":49311,"ELEMENT_SET_NO":999,"REV_AT_EPOCH":21014,"BSTAR":0.00026145667,"MEAN_MOTION_DOT":1.19e-6,"MEAN_MOTION_DDOT":0},{"OBJECT_NAME":"ONEWEB-0386","OBJECT_ID":"2021-090AK","EPOCH":"2026-01-19T07:02:00.586176","MEAN_MOTION":13.207738,"ECCENTRICITY":0.00019128,"INCLINATION":87.9232,"RA_OF_ASC_NODE":304.1292,"ARG_OF_PERICENTER":71.0302,"MEAN_ANOMALY":289.1038,"EPHEMERIS_TYPE":0,"CLASSIFICATION_TYPE":"U","NORAD_CAT_ID":49312,"ELEMENT_SET_NO":999,"REV_AT_EPOCH":21016,"BSTAR":0.00032730643,"MEAN_MOTION_DOT":1.46e-6,"MEAN_MOTION_DDOT":0},{"OBJECT_NAME":"ONEWEB-0387","OBJECT_ID":"2021-090AL","EPOCH":"2026-01-19T06:39:17.678880","MEAN_MOTION":13.20772763,"ECCENTRICITY":0.00019419,"INCLINATION":87.9225,"RA_OF_ASC_NODE":304.1749,"ARG_OF_PERICENTER":82.9619,"MEAN_ANOMALY":277.1735,"EPHEMERIS_TYPE":0,"CLASSIFICATION_TYPE":"U","NORAD_CAT_ID":49313,"ELEMENT_SET_NO":999,"REV_AT_EPOCH":21016,"BSTAR":0.00033404053,"MEAN_MOTION_DOT":1.49e-6,"MEAN_MOTION_DDOT":0},{"OBJECT_NAME":"ONEWEB-0388","OBJECT_ID":"2021-090AM","EPOCH":"2026-01-19T06:37:44.682240","MEAN_MOTION":13.19727055,"ECCENTRICITY":0.00018864,"INCLINATION":87.9232,"RA_OF_ASC_NODE":334.6067,"ARG_OF_PERICENTER":77.3859,"MEAN_ANOMALY":282.7484,"EPHEMERIS_TYPE":0,"CLASSIFICATION_TYPE":"U","NORAD_CAT_ID":49314,"ELEMENT_SET_NO":999,"REV_AT_EPOCH":20677,"BSTAR":7.3971492e-5,"MEAN_MOTION_DOT":4.3e-7,"MEAN_MOTION_DDOT":0},{"OBJECT_NAME":"ONEWEB-0389","OBJECT_ID":"2021-132A","EPOCH":"2026-01-19T06:54:34.160832","MEAN_MOTION":13.17648962,"ECCENTRICITY":0.00022066,"INCLINATION":87.9086,"RA_OF_ASC_NODE":35.4631,"ARG_OF_PERICENTER":91.914,"MEAN_ANOMALY":268.2244,"EPHEMERIS_TYPE":0,"CLASSIFICATION_TYPE":"U","NORAD_CAT_ID":50469,"ELEMENT_SET_NO":999,"REV_AT_EPOCH":19847,"BSTAR":7.2404275e-5,"MEAN_MOTION_DOT":4.1e-7,"MEAN_MOTION_DDOT":0},{"OBJECT_NAME":"ONEWEB-0390","OBJECT_ID":"2021-132B","EPOCH":"2026-01-19T06:56:59.777664","MEAN_MOTION":13.17648498,"ECCENTRICITY":0.00018097,"INCLINATION":87.9083,"RA_OF_ASC_NODE":35.4634,"ARG_OF_PERICENTER":100.4998,"MEAN_ANOMALY":259.6338,"EPHEMERIS_TYPE":0,"CLASSIFICATION_TYPE":"U","NORAD_CAT_ID":50470,"ELEMENT_SET_NO":999,"REV_AT_EPOCH":19847,"BSTAR":0.00022066072,"MEAN_MOTION_DOT":9.9e-7,"MEAN_MOTION_DDOT":0},{"OBJECT_NAME":"ONEWEB-0391","OBJECT_ID":"2021-132C","EPOCH":"2026-01-19T06:59:25.216512","MEAN_MOTION":13.17650771,"ECCENTRICITY":0.0002628,"INCLINATION":87.9084,"RA_OF_ASC_NODE":35.4726,"ARG_OF_PERICENTER":101.3368,"MEAN_ANOMALY":258.8059,"EPHEMERIS_TYPE":0,"CLASSIFICATION_TYPE":"U","NORAD_CAT_ID":50471,"ELEMENT_SET_NO":999,"REV_AT_EPOCH":19847,"BSTAR":8.203834e-5,"MEAN_MOTION_DOT":4.5e-7,"MEAN_MOTION_DDOT":0},{"OBJECT_NAME":"ONEWEB-0392","OBJECT_ID":"2021-132D","EPOCH":"2026-01-19T07:43:10.584192","MEAN_MOTION":13.17649502,"ECCENTRICITY":0.00021942,"INCLINATION":87.9092,"RA_OF_ASC_NODE":35.4222,"ARG_OF_PERICENTER":93.8402,"MEAN_ANOMALY":266.2981,"EPHEMERIS_TYPE":0,"CLASSIFICATION_TYPE":"U","NORAD_CAT_ID":50472,"ELEMENT_SET_NO":999,"REV_AT_EPOCH":19851,"BSTAR":0.00012330749,"MEAN_MOTION_DOT":6.1e-7,"MEAN_MOTION_DDOT":0},{"OBJECT_NAME":"ONEWEB-0393","OBJECT_ID":"2021-132E","EPOCH":"2026-01-19T01:36:26.426592","MEAN_MOTION":13.1764813,"ECCENTRICITY":0.00019729,"INCLINATION":87.9096,"RA_OF_ASC_NODE":35.4958,"ARG_OF_PERICENTER":92.7322,"MEAN_ANOMALY":267.4036,"EPHEMERIS_TYPE":0,"CLASSIFICATION_TYPE":"U","NORAD_CAT_ID":50473,"ELEMENT_SET_NO":999,"REV_AT_EPOCH":19847,"BSTAR":3.6701525e-5,"MEAN_MOTION_DOT":2.7e-7,"MEAN_MOTION_DDOT":0},{"OBJECT_NAME":"ONEWEB-0394","OBJECT_ID":"2021-132F","EPOCH":"2026-01-19T05:28:32.448576","MEAN_MOTION":13.18685068,"ECCENTRICITY":0.00019484,"INCLINATION":87.919,"RA_OF_ASC_NODE":5.0126,"ARG_OF_PERICENTER":84.1524,"MEAN_ANOMALY":275.983,"EPHEMERIS_TYPE":0,"CLASSIFICATION_TYPE":"U","NORAD_CAT_ID":50474,"ELEMENT_SET_NO":999,"REV_AT_EPOCH":20196,"BSTAR":0.00011092949,"MEAN_MOTION_DOT":5.7e-7,"MEAN_MOTION_DDOT":0},{"OBJECT_NAME":"ONEWEB-0395","OBJECT_ID":"2021-132G","EPOCH":"2026-01-19T07:29:20.338944","MEAN_MOTION":13.11416819,"ECCENTRICITY":0.00018935,"INCLINATION":87.8817,"RA_OF_ASC_NODE":50.7091,"ARG_OF_PERICENTER":103.1534,"MEAN_ANOMALY":256.9805,"EPHEMERIS_TYPE":0,"CLASSIFICATION_TYPE":"U","NORAD_CAT_ID":50475,"ELEMENT_SET_NO":999,"REV_AT_EPOCH":19620,"BSTAR":0.0010712631,"MEAN_MOTION_DOT":3.92e-6,"MEAN_MOTION_DDOT":0},{"OBJECT_NAME":"ONEWEB-0396","OBJECT_ID":"2021-132H","EPOCH":"2026-01-19T05:19:03.005184","MEAN_MOTION":13.18685304,"ECCENTRICITY":0.0001912,"INCLINATION":87.9191,"RA_OF_ASC_NODE":5.0259,"ARG_OF_PERICENTER":85.0795,"MEAN_ANOMALY":275.0556,"EPHEMERIS_TYPE":0,"CLASSIFICATION_TYPE":"U","NORAD_CAT_ID":50476,"ELEMENT_SET_NO":999,"REV_AT_EPOCH":20200,"BSTAR":-0.00015727563,"MEAN_MOTION_DOT":-4.9e-7,"MEAN_MOTION_DDOT":0},{"OBJECT_NAME":"ONEWEB-0397","OBJECT_ID":"2021-132J","EPOCH":"2026-01-19T07:29:40.355232","MEAN_MOTION":13.18685636,"ECCENTRICITY":0.00019333,"INCLINATION":87.9191,"RA_OF_ASC_NODE":5.0079,"ARG_OF_PERICENTER":81.2177,"MEAN_ANOMALY":278.9174,"EPHEMERIS_TYPE":0,"CLASSIFICATION_TYPE":"U","NORAD_CAT_ID":50477,"ELEMENT_SET_NO":999,"REV_AT_EPOCH":20199,"BSTAR":-3.2189305e-5,"MEAN_MOTION_DOT":0,"MEAN_MOTION_DDOT":0}]
